GLOBALSTAR M075         
1 37192U 10054E   23346.54866344 -.00000104  00000+0 -33214-5 0  9994
2 37192  51.9962  64.2017 0000729 121.9184 343.2911 12.62268049606218
GLOBALSTAR M073         
1 37193U 10054F   23346.31047337 -.00000097  00000+0  40033-4 0  9999
2 37193  52.0080 338.3225 0000275  65.5725  38.7101 12.62270221608010
GLOBALSTAR M083         
1 37739U 11033A   23346.16501428 -.00000088  00000+0  90194-4 0  9995
2 37739  51.9871 288.2524 0000904  61.3188  42.2342 12.62263684577010
GLOBALSTAR M088         
1 37740U 11033B   23346.76690319 -.00000065  00000+0  21526-3 0  9998
2 37740  51.9710 192.3754 0001376  90.1217 349.8874 12.62268814572630
GLOBALSTAR M091         
1 37741U 11033C   23346.78525812 -.00000102  00000+0  97602-5 0  9998
2 37741  51.9972 154.8861 0001414 103.6402 358.9916 12.62269593573423
GLOBALSTAR M085         
1 37742U 11033D   23346.53966880 -.00000120  00000+0 -90733-4 0  9994
2 37742  51.9861 107.1602 0001167 115.4873  10.7812 12.62265773573900
GLOBALSTAR M081         
1 37743U 11033E   23346.55570479 -.00000131  00000+0 -15464-3 0  9991
2 37743  51.9951 109.5573 0001192 123.4067 315.8962 12.62267518574057
GLOBALSTAR M089         
1 37744U 11033F   23346.98504088 -.00000108  00000+0 -22112-4 0  9995
2 37744  51.9946  62.5817 0000514 148.3898 263.1551 12.62269817575207
